OBJECT_NAME,OBJECT_ID,EPOCH,MEAN_MOTION,ECCENTRICITY,INCLINATION,RA_OF_ASC_NODE,ARG_OF_PERICENTER,MEAN_ANOMALY,EPHEMERIS_TYPE,CLASSIFICATION_TYPE,NORAD_CAT_ID,ELEMENT_SET_NO,REV_AT_EPOCH,BSTAR,MEAN_MOTION_DOT,MEAN_MOTION_DDOT
TEVEL2-9,2025-052AD,2026-05-16T04:53:09.255840,15.30865652,.00041404,97.3984,31.6126,247.0672,113.0133,0,U,63237,999,6513,.46082915E-3,.13681E-3,0
TEVEL2-7,2025-052AE,2026-05-16T04:09:29.554272,15.30595925,.00042434,97.3985,31.5113,247.8717,112.2074,0,U,63238,999,6512,.44944882E-3,.1323E-3,0
TEVEL2-8,2025-052AF,2026-05-16T04:20:52.046016,15.30578989,.00041475,97.3991,31.4970,249.1347,110.9450,0,U,63239,999,6512,.46912187E-3,.13806E-3,0
HADES-ICM,2025-052BN,2026-05-15T05:30:38.105280,15.98249306,.00098911,97.3754,39.5599,173.5382,186.6025,0,U,63492,999,6559,.18347231E-2,.842919E-2,.32853825E-3
FORESAIL-1 PRIME,2025-276DS,2026-05-16T04:03:53.445312,15.18387157,.0002109,97.4210,210.0321,176.1142,184.0109,0,U,66778,999,2554,.17239759E-3,.3477E-4,0
