TEVEL2-9                
1 63237U 25052AD  26136.20357935  .00013681  00000+0  46083-3 0  9999
2 63237  97.3984  31.6126 0004140 247.0672 113.0133 15.30865652 65137
TEVEL2-7                
1 63238U 25052AE  26136.17325873  .00013230  00000+0  44945-3 0  9997
2 63238  97.3985  31.5113 0004243 247.8717 112.2074 15.30595925 65123
TEVEL2-8                
1 63239U 25052AF  26136.18115794  .00013806  00000+0  46912-3 0  9993
2 63239  97.3991  31.4970 0004147 249.1347 110.9450 15.30578989 65122
HADES-ICM               
1 63492U 25052BN  26135.22960770  .00842919  32854-3  18347-2 0  9991
2 63492  97.3754  39.5599 0009891 173.5382 186.6025 15.98249306 65597
FORESAIL-1 PRIME        
1 66778U 25276DS  26136.16936858  .00003477  00000+0  17240-3 0  9997
2 66778  97.4210 210.0321 0002109 176.1142 184.0109 15.18387157 25547
